[{"OBJECT_NAME":"HULIANWANG JISHU SHIYAN B","OBJECT_ID":"2023-095B","EPOCH":"2026-03-09T23:28:55.196832","MEAN_MOTION":13.3954299,"ECCENTRICITY":0.0018069,"INCLINATION":86.5018,"RA_OF_ASC_NODE":39.1033,"ARG_OF_PERICENTER":102.893,"MEAN_ANOMALY":257.4232,"EPHEMERIS_TYPE":0,"CLASSIFICATION_TYPE":"U","NORAD_CAT_ID":57289,"ELEMENT_SET_NO":999,"REV_AT_EPOCH":13047,"BSTAR":0.00012620354,"MEAN_MOTION_DOT":8.4e-7,"MEAN_MOTION_DDOT":0},{"OBJECT_NAME":"DELTA 1 DEB","OBJECT_ID":"1968-114K","EPOCH":"2026-02-23T08:22:48.346752","MEAN_MOTION":13.02265562,"ECCENTRICITY":0.02801722,"INCLINATION":101.8818,"RA_OF_ASC_NODE":81.1148,"ARG_OF_PERICENTER":346.4408,"MEAN_ANOMALY":24.3796,"EPHEMERIS_TYPE":0,"CLASSIFICATION_TYPE":"U","NORAD_CAT_ID":42083,"ELEMENT_SET_NO":999,"REV_AT_EPOCH":3335,"BSTAR":0.00049593803,"MEAN_MOTION_DOT":1.32e-6,"MEAN_MOTION_DDOT":0}]
